CCSDS_OMM_VERS = 2.0
CREATION_DATE  = 
ORIGINATOR     = 

OBJECT_NAME    = DELTA 2 R/B(1)
OBJECT_ID      = 1990-008B
CENTER_NAME    = EARTH
REF_FRAME      = TEME
TIME_SYSTEM    = UTC
MEAN_ELEMENT_THEORY = SGP/SGP4

EPOCH          = 2025-12-03T07:33:24.776640
MEAN_MOTION    = 15.44152302
ECCENTRICITY   = .0112536
INCLINATION    = 35.6064
RA_OF_ASC_NODE = 81.3467
ARG_OF_PERICENTER = 92.3388
MEAN_ANOMALY   = 269.0234

EPHEMERIS_TYPE = 0
CLASSIFICATION_TYPE = U
NORAD_CAT_ID   = 20453
ELEMENT_SET_NO = 999
REV_AT_EPOCH   = 91117
BSTAR          = .6832E-3
MEAN_MOTION_DOT = .41182E-3
MEAN_MOTION_DDOT = 0

CCSDS_OMM_VERS = 2.0
CREATION_DATE  = 
ORIGINATOR     = 

OBJECT_NAME    = COSMOS 2058
OBJECT_ID      = 1990-010A
CENTER_NAME    = EARTH
REF_FRAME      = TEME
TIME_SYSTEM    = UTC
MEAN_ELEMENT_THEORY = SGP/SGP4

EPOCH          = 2025-12-03T17:57:10.651680
MEAN_MOTION    = 15.10333714
ECCENTRICITY   = .0008522
INCLINATION    = 82.4630
RA_OF_ASC_NODE = 141.8756
ARG_OF_PERICENTER = 311.2737
MEAN_ANOMALY   = 48.7758

EPHEMERIS_TYPE = 0
CLASSIFICATION_TYPE = U
NORAD_CAT_ID   = 20465
ELEMENT_SET_NO = 999
REV_AT_EPOCH   = 92775
BSTAR          = .4003E-3
MEAN_MOTION_DOT = .6595E-4
MEAN_MOTION_DDOT = 0

CCSDS_OMM_VERS = 2.0
CREATION_DATE  = 
ORIGINATOR     = 

OBJECT_NAME    = SL-14 R/B
OBJECT_ID      = 1990-010B
CENTER_NAME    = EARTH
REF_FRAME      = TEME
TIME_SYSTEM    = UTC
MEAN_ELEMENT_THEORY = SGP/SGP4

EPOCH          = 2025-12-03T18:35:08.395008
MEAN_MOTION    = 14.83457853
ECCENTRICITY   = .0018318
INCLINATION    = 82.5022
RA_OF_ASC_NODE = 357.4677
ARG_OF_PERICENTER = 254.8210
MEAN_ANOMALY   = 105.0979

EPHEMERIS_TYPE = 0
CLASSIFICATION_TYPE = U
NORAD_CAT_ID   = 20466
ELEMENT_SET_NO = 999
REV_AT_EPOCH   = 91426
BSTAR          = .82523E-4
MEAN_MOTION_DOT = .703E-5
MEAN_MOTION_DDOT = 0

CCSDS_OMM_VERS = 2.0
CREATION_DATE  = 
ORIGINATOR     = 

OBJECT_NAME    = SL-14 R/B
OBJECT_ID      = 1990-018B
CENTER_NAME    = EARTH
REF_FRAME      = TEME
TIME_SYSTEM    = UTC
MEAN_ELEMENT_THEORY = SGP/SGP4

EPOCH          = 2025-12-03T10:19:09.447744
MEAN_MOTION    = 14.82030737
ECCENTRICITY   = .0017643
INCLINATION    = 82.5202
RA_OF_ASC_NODE = 313.0668
ARG_OF_PERICENTER = 52.3080
MEAN_ANOMALY   = 307.9730

EPHEMERIS_TYPE = 0
CLASSIFICATION_TYPE = U
NORAD_CAT_ID   = 20511
ELEMENT_SET_NO = 999
REV_AT_EPOCH   = 90832
BSTAR          = .93754E-4
MEAN_MOTION_DOT = .769E-5
MEAN_MOTION_DDOT = 0

CCSDS_OMM_VERS = 2.0
CREATION_DATE  = 
ORIGINATOR     = 

OBJECT_NAME    = HST
OBJECT_ID      = 1990-037B
CENTER_NAME    = EARTH
REF_FRAME      = TEME
TIME_SYSTEM    = UTC
MEAN_ELEMENT_THEORY = SGP/SGP4

EPOCH          = 2025-12-03T09:16:47.664192
MEAN_MOTION    = 15.27839490
ECCENTRICITY   = .0002082
INCLINATION    = 28.4702
RA_OF_ASC_NODE = 336.1401
ARG_OF_PERICENTER = 133.9439
MEAN_ANOMALY   = 226.1328

EPHEMERIS_TYPE = 0
CLASSIFICATION_TYPE = U
NORAD_CAT_ID   = 20580
ELEMENT_SET_NO = 999
REV_AT_EPOCH   = 75856
BSTAR          = .35826E-3
MEAN_MOTION_DOT = .10253E-3
MEAN_MOTION_DDOT = 0

CCSDS_OMM_VERS = 2.0
CREATION_DATE  = 
ORIGINATOR     = 

OBJECT_NAME    = SL-16 R/B
OBJECT_ID      = 1990-046B
CENTER_NAME    = EARTH
REF_FRAME      = TEME
TIME_SYSTEM    = UTC
MEAN_ELEMENT_THEORY = SGP/SGP4

EPOCH          = 2025-12-03T18:25:52.811040
MEAN_MOTION    = 14.14998484
ECCENTRICITY   = .0011922
INCLINATION    = 70.9982
RA_OF_ASC_NODE = 139.3630
ARG_OF_PERICENTER = 89.9302
MEAN_ANOMALY   = 270.3187

EPHEMERIS_TYPE = 0
CLASSIFICATION_TYPE = U
NORAD_CAT_ID   = 20625
ELEMENT_SET_NO = 999
REV_AT_EPOCH   = 83482
BSTAR          = .18002E-3
MEAN_MOTION_DOT = .301E-5
MEAN_MOTION_DDOT = 0

CCSDS_OMM_VERS = 2.0
CREATION_DATE  = 
ORIGINATOR     = 

OBJECT_NAME    = COSMOS 2084
OBJECT_ID      = 1990-055A
CENTER_NAME    = EARTH
REF_FRAME      = TEME
TIME_SYSTEM    = UTC
MEAN_ELEMENT_THEORY = SGP/SGP4

EPOCH          = 2025-12-03T07:58:27.193152
MEAN_MOTION    = 15.04920289
ECCENTRICITY   = .0033195
INCLINATION    = 62.7910
RA_OF_ASC_NODE = 304.0453
ARG_OF_PERICENTER = 173.5135
MEAN_ANOMALY   = 186.6401

EPHEMERIS_TYPE = 0
CLASSIFICATION_TYPE = U
NORAD_CAT_ID   = 20663
ELEMENT_SET_NO = 999
REV_AT_EPOCH   = 92181
BSTAR          = .32435E-3
MEAN_MOTION_DOT = .4468E-4
MEAN_MOTION_DDOT = 0

CCSDS_OMM_VERS = 2.0
CREATION_DATE  = 
ORIGINATOR     = 

OBJECT_NAME    = SL-6 R/B(2)
OBJECT_ID      = 1990-055D
CENTER_NAME    = EARTH
REF_FRAME      = TEME
TIME_SYSTEM    = UTC
MEAN_ELEMENT_THEORY = SGP/SGP4

EPOCH          = 2025-12-03T18:51:36.358272
MEAN_MOTION    = 15.03010680
ECCENTRICITY   = .0011917
INCLINATION    = 62.7831
RA_OF_ASC_NODE = 219.8380
ARG_OF_PERICENTER = 301.6884
MEAN_ANOMALY   = 58.3053

EPHEMERIS_TYPE = 0
CLASSIFICATION_TYPE = U
NORAD_CAT_ID   = 20666
ELEMENT_SET_NO = 999
REV_AT_EPOCH   = 92377
BSTAR          = .26472E-3
MEAN_MOTION_DOT = .3389E-4
MEAN_MOTION_DDOT = 0

CCSDS_OMM_VERS = 2.0
CREATION_DATE  = 
ORIGINATOR     = 

OBJECT_NAME    = SL-8 R/B
OBJECT_ID      = 1990-078B
CENTER_NAME    = EARTH
REF_FRAME      = TEME
TIME_SYSTEM    = UTC
MEAN_ELEMENT_THEORY = SGP/SGP4

EPOCH          = 2025-12-03T12:05:55.288032
MEAN_MOTION    = 14.85343652
ECCENTRICITY   = .0375038
INCLINATION    = 82.9044
RA_OF_ASC_NODE = 337.5748
ARG_OF_PERICENTER = 336.9537
MEAN_ANOMALY   = 21.5219

EPHEMERIS_TYPE = 0
CLASSIFICATION_TYPE = U
NORAD_CAT_ID   = 20775
ELEMENT_SET_NO = 999
REV_AT_EPOCH   = 79500
BSTAR          = .96466E-3
MEAN_MOTION_DOT = .31137E-3
MEAN_MOTION_DDOT = 0

CCSDS_OMM_VERS = 2.0
CREATION_DATE  = 
ORIGINATOR     = 

OBJECT_NAME    = SL-8 R/B
OBJECT_ID      = 1991-006B
CENTER_NAME    = EARTH
REF_FRAME      = TEME
TIME_SYSTEM    = UTC
MEAN_ELEMENT_THEORY = SGP/SGP4

EPOCH          = 2025-12-03T17:50:40.431264
MEAN_MOTION    = 13.77488465
ECCENTRICITY   = .002151
INCLINATION    = 82.9429
RA_OF_ASC_NODE = 241.4039
ARG_OF_PERICENTER = 306.4616
MEAN_ANOMALY   = 113.1046

EPHEMERIS_TYPE = 0
CLASSIFICATION_TYPE = U
NORAD_CAT_ID   = 21088
ELEMENT_SET_NO = 999
REV_AT_EPOCH   = 75086
BSTAR          = .82477E-4
MEAN_MOTION_DOT = .97E-6
MEAN_MOTION_DDOT = 0

CCSDS_OMM_VERS = 2.0
CREATION_DATE  = 
ORIGINATOR     = 

OBJECT_NAME    = OKEAN-3
OBJECT_ID      = 1991-039A
CENTER_NAME    = EARTH
REF_FRAME      = TEME
TIME_SYSTEM    = UTC
MEAN_ELEMENT_THEORY = SGP/SGP4

EPOCH          = 2025-12-03T18:25:05.526912
MEAN_MOTION    = 15.04022546
ECCENTRICITY   = .0013127
INCLINATION    = 82.5188
RA_OF_ASC_NODE = 69.7312
ARG_OF_PERICENTER = 298.4275
MEAN_ANOMALY   = 61.5627

EPHEMERIS_TYPE = 0
CLASSIFICATION_TYPE = U
NORAD_CAT_ID   = 21397
ELEMENT_SET_NO = 999
REV_AT_EPOCH   = 85061
BSTAR          = .3671E-3
MEAN_MOTION_DOT = .5109E-4
MEAN_MOTION_DDOT = 0

CCSDS_OMM_VERS = 2.0
CREATION_DATE  = 
ORIGINATOR     = 

OBJECT_NAME    = COSMOS 2151
OBJECT_ID      = 1991-042A
CENTER_NAME    = EARTH
REF_FRAME      = TEME
TIME_SYSTEM    = UTC
MEAN_ELEMENT_THEORY = SGP/SGP4

EPOCH          = 2025-12-03T19:34:38.843040
MEAN_MOTION    = 14.99632276
ECCENTRICITY   = .0013365
INCLINATION    = 82.4960
RA_OF_ASC_NODE = 176.1026
ARG_OF_PERICENTER = 29.1555
MEAN_ANOMALY   = 331.0412

EPHEMERIS_TYPE = 0
CLASSIFICATION_TYPE = U
NORAD_CAT_ID   = 21422
ELEMENT_SET_NO = 999
REV_AT_EPOCH   = 84882
BSTAR          = .22293E-3
MEAN_MOTION_DOT = .2776E-4
MEAN_MOTION_DDOT = 0

